[{"OBJECT_NAME":"TISAT 1","OBJECT_ID":"2010-035E","EPOCH":"2026-03-09T18:10:07.877568","MEAN_MOTION":15.27628633,"ECCENTRICITY":0.00013432,"INCLINATION":98.0645,"RA_OF_ASC_NODE":6.8512,"ARG_OF_PERICENTER":159.303,"MEAN_ANOMALY":200.8262,"EPHEMERIS_TYPE":0,"CLASSIFICATION_TYPE":"U","NORAD_CAT_ID":36799,"ELEMENT_SET_NO":999,"REV_AT_EPOCH":85250,"BSTAR":0.00091004793,"MEAN_MOTION_DOT":0.00024554,"MEAN_MOTION_DDOT":0},{"OBJECT_NAME":"STARLINK-31620","OBJECT_ID":"2024-068F","EPOCH":"2026-03-09T07:16:40.742976","MEAN_MOTION":15.27579794,"ECCENTRICITY":0.00010879,"INCLINATION":43.0037,"RA_OF_ASC_NODE":33.2379,"ARG_OF_PERICENTER":268.8316,"MEAN_ANOMALY":91.2411,"EPHEMERIS_TYPE":0,"CLASSIFICATION_TYPE":"U","NORAD_CAT_ID":59460,"ELEMENT_SET_NO":999,"REV_AT_EPOCH":10850,"BSTAR":-1.1633077e-5,"MEAN_MOTION_DOT":-5.82e-6,"MEAN_MOTION_DDOT":0}]
