TISAT 1                 
1 36799U 10035E   26068.75703561  .00024554  00000+0  91005-3 0  9996
2 36799  98.0645   6.8512 0001343 159.3030 200.8262 15.27628633852505
STARLINK-31620          
1 59460U 24068F   26068.30324934 -.00000582  00000+0 -11633-4 0  9998
2 59460  43.0037  33.2379 0001087 268.8316  91.2411 15.27579794108508
